{
  "type": "FeatureCollection",
  "features": [
    {
      "type": "Feature",
      "properties": {
        "norad_id": 46277,
        "name": "NEMO-HD",
        "group": "resource",
        "lat": -3.0614040948666417,
        "lon": 55.15993544719086,
        "alt_km": 447.6291605925244,
        "timestamp": "2025-12-21T18:54:58.151129+00:00",
        "meta_object_name": "NEMO-HD",
        "meta_object_id": "2020-061F",
        "meta_epoch": "2025-12-21T14:15:09.501408",
        "meta_mean_motion": 15.40494905,
        "meta_eccentricity": 0.00013202,
        "meta_inclination": 97.2198,
        "meta_ra_of_asc_node": 54.5796,
        "meta_arg_of_pericenter": 52.3263,
        "meta_mean_anomaly": 307.8103,
        "meta_ephemeris_type": 0,
        "meta_classification_type": "U",
        "meta_norad_cat_id": 46277,
        "meta_element_set_no": 999,
        "meta_rev_at_epoch": 29460,
        "meta_bstar": 0.00020871096,
        "meta_mean_motion_dot": 8.381e-05,
        "meta_mean_motion_ddot": 0,
        "tle_line1": "1 46277U 20061F   25355.59385997  .00008381  00000+0  20871-3 0  9990",
        "tle_line2": "2 46277  97.2198  54.5796 0001320  52.3263 307.8103 15.40494905294601"
      },
      "geometry": {
        "type": "Point",
        "coordinates": [
          55.15993544719086,
          -3.0614040948666417
        ]
      }
    },
    {
      "type": "Feature",
      "properties": {
        "norad_id": 46984,
        "name": "SENTINEL-6A",
        "group": "resource",
        "lat": 52.71383995630085,
        "lon": 179.24501286479227,
        "alt_km": 1337.1100927128673,
        "timestamp": "2025-12-21T18:54:58.151139+00:00",
        "meta_object_name": "SENTINEL-6A",
        "meta_object_id": "2020-086A",
        "meta_epoch": "2025-12-21T12:58:46.587936",
        "meta_mean_motion": 12.8093087,
        "meta_eccentricity": 0.00077181,
        "meta_inclination": 66.0395,
        "meta_ra_of_asc_node": 144.0278,
        "meta_arg_of_pericenter": 269.3518,
        "meta_mean_anomaly": 90.6613,
        "meta_ephemeris_type": 0,
        "meta_classification_type": "U",
        "meta_norad_cat_id": 46984,
        "meta_element_set_no": 999,
        "meta_rev_at_epoch": 23757,
        "meta_bstar": -2.6960578e-05,
        "meta_mean_motion_dot": -6.7e-07,
        "meta_mean_motion_ddot": 0,
        "tle_line1": "1 46984U 20086A   25355.54081699 -.00000067  00000+0 -26961-4 0  9991",
        "tle_line2": "2 46984  66.0395 144.0278 0007718 269.3518  90.6613 12.80930870237572"
      },
      "geometry": {
        "type": "Point",
        "coordinates": [
          179.24501286479227,
          52.71383995630085
        ]
      }
    },
    {
      "type": "Feature",
      "properties": {
        "norad_id": 48079,
        "name": "GAOFEN-12 02",
        "group": "resource",
        "lat": -43.47126988978733,
        "lon": -2.6013856610360957,
        "alt_km": 635.3509430980639,
        "timestamp": "2025-12-21T18:54:58.151149+00:00",
        "meta_object_name": "GAOFEN-12 02",
        "meta_object_id": "2021-026A",
        "meta_epoch": "2025-12-21T14:14:56.384160",
        "meta_mean_motion": 14.80684823,
        "meta_eccentricity": 0.00036011,
        "meta_inclination": 97.9855,
        "meta_ra_of_asc_node": 349.5575,
        "meta_arg_of_pericenter": 83.3468,
        "meta_mean_anomaly": 276.8154,
        "meta_ephemeris_type": 0,
        "meta_classification_type": "U",
        "meta_norad_cat_id": 48079,
        "meta_element_set_no": 999,
        "meta_rev_at_epoch": 25548,
        "meta_bstar": 5.6755135e-05,
        "meta_mean_motion_dot": 3.83e-06,
        "meta_mean_motion_ddot": 0,
        "tle_line1": "1 48079U 21026A   25355.59370815  .00000383  00000+0  56755-4 0  9992",
        "tle_line2": "2 48079  97.9855 349.5575 0003601  83.3468 276.8154 14.80684823255484"
      },
      "geometry": {
        "type": "Point",
        "coordinates": [
          -2.6013856610360957,
          -43.47126988978733
        ]
      }
    },
    {
      "type": "Feature",
      "properties": {
        "norad_id": 48268,
        "name": "PLEIADES NEO 3",
        "group": "resource",
        "lat": 54.45739251626863,
        "lon": 56.899717289568116,
        "alt_km": 618.0855750305545,
        "timestamp": "2025-12-21T18:54:58.151160+00:00",
        "meta_object_name": "PLEIADES NEO 3",
        "meta_object_id": "2021-034A",
        "meta_epoch": "2025-12-21T13:48:19.617120",
        "meta_mean_motion": 14.81675677,
        "meta_eccentricity": 0.0001404,
        "meta_inclination": 97.895,
        "meta_ra_of_asc_node": 67.89,
        "meta_arg_of_pericenter": 90.4509,
        "meta_mean_anomaly": 269.6865,
        "meta_ephemeris_type": 0,
        "meta_classification_type": "U",
        "meta_norad_cat_id": 48268,
        "meta_element_set_no": 999,
        "meta_rev_at_epoch": 25135,
        "meta_bstar": 0.00011372408,
        "meta_mean_motion_dot": 8.43e-06,
        "meta_mean_motion_ddot": 0,
        "tle_line1": "1 48268U 21034A   25355.57522705  .00000843  00000+0  11372-3 0  9992",
        "tle_line2": "2 48268  97.8950  67.8900 0001404  90.4509 269.6865 14.81675677251354"
      },
      "geometry": {
        "type": "Point",
        "coordinates": [
          56.899717289568116,
          54.45739251626863
        ]
      }
    },
    {
      "type": "Feature",
      "properties": {
        "norad_id": 49070,
        "name": "PLEIADES NEO 4",
        "group": "resource",
        "lat": -54.657642798388686,
        "lon": -123.18887765461714,
        "alt_km": 631.8890074375413,
        "timestamp": "2025-12-21T18:54:58.151170+00:00",
        "meta_object_name": "PLEIADES NEO 4",
        "meta_object_id": "2021-073E",
        "meta_epoch": "2025-12-20T17:32:43.601280",
        "meta_mean_motion": 14.81672177,
        "meta_eccentricity": 0.00013249,
        "meta_inclination": 97.8951,
        "meta_ra_of_asc_node": 67.0538,
        "meta_arg_of_pericenter": 89.6187,
        "meta_mean_anomaly": 270.5178,
        "meta_ephemeris_type": 0,
        "meta_classification_type": "U",
        "meta_norad_cat_id": 49070,
        "meta_element_set_no": 999,
        "meta_rev_at_epoch": 23494,
        "meta_bstar": -3.6645539e-05,
        "meta_mean_motion_dot": -3.4e-06,
        "meta_mean_motion_ddot": 0,
        "tle_line1": "1 49070U 21073E   25354.73106020 -.00000340  00000+0 -36646-4 0  9998",
        "tle_line2": "2 49070  97.8951  67.0538 0001324  89.6187 270.5178 14.81672177234945"
      },
      "geometry": {
        "type": "Point",
        "coordinates": [
          -123.18887765461714,
          -54.657642798388686
        ]
      }
    },
    {
      "type": "Feature",
      "properties": {
        "norad_id": 49260,
        "name": "LANDSAT 9",
        "group": "resource",
        "lat": 6.755128386976087,
        "lon": -115.2527242399921,
        "alt_km": 704.4716249737967,
        "timestamp": "2025-12-21T18:54:58.151179+00:00",
        "meta_object_name": "LANDSAT 9",
        "meta_object_id": "2021-088A",
        "meta_epoch": "2025-12-21T14:49:42.297024",
        "meta_mean_motion": 14.57106446,
        "meta_eccentricity": 0.0001114,
        "meta_inclination": 98.2083,
        "meta_ra_of_asc_node": 63.5998,
        "meta_arg_of_pericenter": 92.2065,
        "meta_mean_anomaly": 267.9261,
        "meta_ephemeris_type": 0,
        "meta_classification_type": "U",
        "meta_norad_cat_id": 49260,
        "meta_element_set_no": 999,
        "meta_rev_at_epoch": 22514,
        "meta_bstar": 8.8517204e-05,
        "meta_mean_motion_dot": 3.54e-06,
        "meta_mean_motion_ddot": 0,
        "tle_line1": "1 49260U 21088A   25355.61785066  .00000354  00000+0  88517-4 0  9993",
        "tle_line2": "2 49260  98.2083  63.5998 0001114  92.2065 267.9261 14.57106446225149"
      },
      "geometry": {
        "type": "Point",
        "coordinates": [
          -115.2527242399921,
          6.755128386976087
        ]
      }
    },
    {
      "type": "Feature",
      "properties": {
        "norad_id": 51444,
        "name": "CSG-2",
        "group": "resource",
        "lat": -74.3426339929123,
        "lon": -153.41361027879768,
        "alt_km": 630.8169730719064,
        "timestamp": "2025-12-21T18:54:58.151189+00:00",
        "meta_object_name": "CSG-2",
        "meta_object_id": "2022-008A",
        "meta_epoch": "2025-12-21T14:23:59.377056",
        "meta_mean_motion": 14.82151772,
        "meta_eccentricity": 0.00014533,
        "meta_inclination": 97.8798,
        "meta_ra_of_asc_node": 176.7891,
        "meta_arg_of_pericenter": 84.3555,
        "meta_mean_anomaly": 275.7824,
        "meta_ephemeris_type": 0,
        "meta_classification_type": "U",
        "meta_norad_cat_id": 51444,
        "meta_element_set_no": 999,
        "meta_rev_at_epoch": 21028,
        "meta_bstar": 6.4888241e-05,
        "meta_mean_motion_dot": 4.64e-06,
        "meta_mean_motion_ddot": 0,
        "tle_line1": "1 51444U 22008A   25355.59999279  .00000464  00000+0  64888-4 0  9990",
        "tle_line2": "2 51444  97.8798 176.7891 0001453  84.3555 275.7824 14.82151772210286"
      },
      "geometry": {
        "type": "Point",
        "coordinates": [
          -153.41361027879768,
          -74.3426339929123
        ]
      }
    }
  ]
}